1 02365U 63014Q   06091.63337527 +.00000003 +00000-0 +10000-3 0  9999
2 02365 087.2907 116.4385 0199437 309.0729 049.2552 08.66848124356976
1 02365U 63014Q   06092.55655044 +.00000003 +00000-0 +10000-3 0  9998
2 02365 087.2902 116.3488 0199529 308.0477 050.2517 08.66848143357059
1 02365U 63014Q   06093.59512468  .00000003  00000-0  10000-3 0  9995
2 02365 087.2936 116.2502 0199147 306.8213 051.4580 08.66848299357147
1 02365U 63014Q   06094.63369639 +.00000003 +00000-0 +10000-3 0  9991
2 02365 087.2935 116.1491 0199186 305.6693 052.5764 08.66848297357238
1 02365U 63014Q   06095.55687241 +.00000003 +00000-0 +10000-3 0  9995
2 02365 087.2926 116.0595 0199320 304.6271 053.5936 08.66848352357316
1 02365U 63014Q   06096.13385843  .00000003  00000-0  10000-3 0  9993
2 02365 087.2923 116.0035 0199278 303.9776 054.2298 08.66848260357368
1 02365U 63014Q   06096.59544701 +.00000003 +00000-0 +10000-3 0  9993
2 02365 087.2920 115.9585 0199316 303.4578 054.7401 08.66848395357406
1 02365U 63014Q   06097.51862353 +.00000003 +00000-0 +10000-3 0  9992
2 02365 087.2914 115.8686 0199518 302.5168 055.6521 08.66848251357481
1 02365U 63014Q   06098.55719779 +.00000003 +00000-0 +10000-3 0  9990
2 02365 087.2915 115.7676 0199631 301.3462 056.8013 08.66848433357571
1 02365U 63014Q   06099.59577157 +.00000003 +00000-0 +10000-3 0  9997
2 02365 087.2911 115.6669 0199621 300.1594 057.9624 08.66848427357663
1 02365U 63014Q   06100.51894952 +.00000003 +00000-0 +10000-3 0  9997
2 02365 087.2911 115.5774 0199582 299.1232 058.9797 08.66848441357748
1 02365U 63014Q   06101.09593550  .00000003  00000-0  10000-3 0  9991
2 02365 087.2944 115.5206 0199930 298.5937 059.4928 08.66848340357791
1 02365U 63014Q   06101.55752508 +.00000003 +00000-0 +10000-3 0  9992
2 02365 087.2945 115.4759 0199995 298.1013 059.9769 08.66848382357835
1 02365U 63014Q   06102.59609985 +.00000003 +00000-0 +10000-3 0  9997
2 02365 087.2943 115.3752 0200067 296.9854 061.0697 08.66848393357923
1 02365U 63014Q   06103.51927818  .00000003  00000-0  10000-3 0  9998
2 02365 087.2934 115.2860 0200070 295.9626 062.0752 08.66848387358008
1 02365U 63014Q   06104.55785322 +.00000003 +00000-0 +10000-3 0  9995
2 02365 087.2943 115.1854 0200086 294.8207 063.1979 08.66848505358094
1 02365U 63014Q   06105.48103189 +.00000003 +00000-0 +10000-3 0  9993
2 02365 087.2908 115.0930 0200455 293.9378 064.0646 08.66848685358177
1 02365U 63014Q   06106.05801747  .00000003  00000-0  10000-3 0  9992
2 02365 087.2907 115.0369 0200448 293.3165 064.6733 08.66848710358220
1 02365U 63014Q   06106.51960646 +.00000003 +00000-0 +10000-3 0  9997
2 02365 087.2906 114.9919 0200427 292.8116 065.1702 08.66848772358269
1 02365U 63014Q   06107.55818180 +.00000003 +00000-0 +10000-3 0  9997
2 02365 087.2905 114.8910 0200461 291.6648 066.3004 08.66848954358353
1 02365U 63014Q   06108.13516776  .00000003  00000-0  10000-3 0  9998
2 02365 087.2904 114.8349 0200478 291.0727 066.8809 08.66848980358401
1 02365U 63014Q   06108.48135970 +.00000003 +00000-0 +10000-3 0  9999
2 02365 087.2906 114.8013 0200457 290.7037 067.2438 08.66848972358435
1 02365U 63014Q   06109.51993591 +.00000003 +00000-0 +10000-3 0  9995
2 02365 087.2906 114.7005 0200378 289.5240 068.4103 08.66849103358528
1 02365U 63014Q   06110.55851183  .00000003  00000-0  10000-3 0  9991
2 02365 087.2891 114.5986 0200114 288.2899 069.6306 08.66849133358612
1 02365U 63014Q   06110.55851183 +.00000003 +00000-0 +10000-3 0  9991
2 02365 087.2891 114.5986 0200114 288.2899 069.6306 08.66849133358612
1 02365U 63014Q   06111.48169078 +.00000003 +00000-0 +10000-3 0  9999
2 02365 087.2898 114.5091 0199950 287.2279 070.6799 08.66849137358692
1 02365U 63014Q   06112.52026800 +.00000003 +00000-0 +10000-3 0  9990
2 02365 087.2901 114.4078 0199859 286.1233 071.7712 08.66849123358789
1 02365U 63014Q   06113.09725552  .00000003  00000-0  10000-3 0  9993
2 02365 087.2897 114.3518 0199822 285.5079 072.3796 08.66849103358835
1 02365U 63014Q   06113.44344814 +.00000003 +00000-0 +10000-3 0  9990
2 02365 087.2898 114.3182 0199789 285.1340 072.7502 08.66849117358869
1 02365U 63014Q   06114.94361613 +.00000003 +00000-0 +10000-3 0  9992
2 02365 087.2907 114.1721 0199705 283.5339 074.3340 08.66849086358992
1 02365U 63014Q   06115.52060421  .00000003  00000-0  10000-3 0  9990
2 02365 087.2909 114.1157 0199591 282.8705 074.9931 08.66849057359046
1 02365U 63014Q   06116.44378448 +.00000003 +00000-0 +10000-3 0  9993
2 02365 087.2914 114.0259 0199420 281.8210 076.0371 08.66849162359122
1 02365U 63014Q   06117.36696494 +.00000003 +00000-0 +10000-3 0  9999
2 02365 087.2915 113.9359 0199289 280.8212 077.0293 08.66849195359205
1 02365U 63014Q   06118.05935026  .00000003  00000-0  10000-3 0  9993
2 02365 087.2912 113.8686 0199231 280.0780 077.7655 08.66849195359268
1 02365U 63014Q   06118.52094091 +.00000003 +00000-0 +10000-3 0  9993
2 02365 087.2916 113.8239 0199037 279.4806 078.3647 08.66849287359306
1 02365U 63014Q   06119.44412101 +.00000003 +00000-0 +10000-3 0  9991
2 02365 087.2921 113.7343 0198919 278.4869 079.3513 08.66849387359385
1 02365U 63014Q   06120.48269991  .00000003  00000-0  10000-3 0  9994
2 02365 087.2920 113.6333 0198727 277.3806 080.4529 08.66849469359479
1 02365U 63014Q   06121.52127972 +.00000003 +00000-0 +10000-3 0  9992
2 02365 087.2920 113.5324 0198464 276.2537 081.5761 08.66849479359566
1 02365U 63014Q   06122.44446190 +.00000003 +00000-0 +10000-3 0  9990
2 02365 087.2920 113.4429 0198235 275.2215 082.6067 08.66849515359640
1 02365U 63014Q   06122.90605233  .00000003  00000-0  10000-3 0  9996
2 02365 087.2844 113.4042 0198213 275.0469 082.7666 08.66849308359681
1 02365U 63014Q   06123.48304526 +.00000003 +00000-0 +10000-3 0  9991
2 02365 087.2831 113.3483 0197975 274.4191 083.4079 08.66849353359736
1 02365U 63014Q   06124.52162529 +.00000003 +00000-0 +10000-3 0  9992
2 02365 087.2808 113.2478 0197726 273.3162 084.5089 08.66849394359821
1 02365U 63014Q   06124.98321672  .00000003  00000-0  10000-3 0  9998
2 02365 087.2801 113.2028 0197607 272.8273 084.9961 08.66849383359865
1 02365U 63014Q   06125.44480877 +.00000003 +00000-0 +10000-3 0  9993
2 02365 087.2781 113.1566 0197697 272.4654 085.3548 08.66849280359903
1 02365U 63014Q   06126.48339157 +.00000003 +00000-0 +10000-3 0  9992
2 02365 087.2798 113.0550 0197481 271.3575 086.4682 08.66849266359998
1 02365U 63014Q   06127.40657486  .00000003  00000-0  10000-3 0  9993
2 02365 087.2795 112.9653 0197211 270.2788 087.5528 08.66849453360072
1 02365U 63014Q   06128.44515449 +.00000003 +00000-0 +10000-3 0  9990
2 02365 087.2791 112.8644 0196886 269.2037 088.6248 08.66849490360161
1 02365U 63014Q   06129.48373666  .00000003  00000-0  10000-3 0  9998
2 02365 087.2785 112.7634 0196616 268.0011 089.8356 08.66849604360252
1 02365U 63014Q   06130.52231818 +.00000003 +00000-0 +10000-3 0  9997
2 02365 087.2781 112.6622 0196295 266.7356 091.1074 08.66849640360347
1 02365U 63014Q   06131.44550062 +.00000003 +00000-0 +10000-3 0  9994
2 02365 087.2789 112.5722 0196030 265.6324 092.2127 08.66849676360424
1 02365U 63014Q   06132.25328605  .00000003  00000-0  10000-3 0  9990
2 02365 087.2785 112.4934 0195821 264.7553 093.0894 08.66849650360494
1 02365U 63014Q   06132.48408326 +.00000003 +00000-0 +10000-3 0  9994
2 02365 087.2791 112.4713 0195669 264.4232 093.4317 08.66849763360519
1 02365U 63014Q   06133.40726776 +.00000003 +00000-0 +10000-3 0  9999
2 02365 087.2780 112.3819 0195326 263.4576 094.4052 08.66849948360593
1 02365U 63014Q   06134.44585008  .00000003  00000-0  10000-3 0  9995
2 02365 087.2773 112.2808 0194968 262.3259 095.5457 08.66850086360685
1 02365U 63014Q   06135.48443061  .00000003  00000-0  10000-3 0  9992
2 02365 087.2904 112.1760 0194784 260.7667 097.1136 08.66850068360770
1 02365U 63014Q   06136.40761571 +.00000003 +00000-0 +10000-3 0  9994
2 02365 087.2908 112.0861 0194507 259.6402 098.2521 08.66850152360855
1 02365U 63014Q   06137.33079934 +.00000003 +00000-0 +10000-3 0  9992
2 02365 087.2936 111.9968 0194171 258.5278 099.3708 08.66850139360931
1 02365U 63014Q   06138.02318820  .00000003  00000-0  10000-3 0  9999
2 02365 087.2939 111.9293 0193831 257.9306 099.9726 08.66850279360999
1 02365U 63014Q   06138.48478203 +.00000003 +00000-0 +10000-3 0  9991
2 02365 087.2942 111.8846 0193755 257.3910 100.5243 08.66850356361031
1 02365U 63014Q   06139.40796558 +.00000003 +00000-0 +10000-3 0  9990
2 02365 087.2939 111.7955 0193530 256.3955 101.5275 08.66850517361110
1 02365U 63014Q   06140.33115062  .00000003  00000-0  10000-3 0  9999
2 02365 087.2941 111.7067 0192953 254.9785 102.9446 08.66850013361194
1 02365U 63014Q   06140.44655511 +.00000003 +00000-0 +10000-3 0  9999
2 02365 087.2938 111.6952 0192870 254.8366 103.1080 08.66849984361208
1 02365U 63014Q   06141.36974340 +.00000003 +00000-0 +10000-3 0  9995
2 02365 087.2942 111.6057 0192489 253.7871 104.1748 08.66849990361281
1 02365U 63014Q   06142.52372783  .00000003  00000-0  10000-3 0  9997
2 02365 087.2947 111.4928 0192139 252.3148 105.6673 08.66849840361383
1 02365U 63014Q   06143.44691601 +.00000003 +00000-0 +10000-3 0  9992
2 02365 087.2959 111.4031 0191633 251.2264 106.7731 08.66849809361467
1 02365U 63014Q   06144.37010079  .00000003  00000-0  10000-3 0  9999
2 02365 087.2967 111.3131 0191281 250.0581 107.9584 08.66850138361549
1 02365U 63014Q   06145.40868667 +.00000003 +00000-0 +10000-3 0  9998
2 02365 087.2970 111.2119 0190965 248.6726 109.3720 08.66850343361636
1 02365U 63014Q   06146.33187209 +.00000003 +00000-0 +10000-3 0  9997
2 02365 087.2968 111.1233 0190549 247.7341 110.3231 08.66850560361719
1 02365U 63014Q   06146.90886290  .00000003  00000-0  10000-3 0  9996
2 02365 087.2969 111.0670 0190208 247.1380 110.9219 08.66850534361761
1 02365U 63014Q   06147.37045774 +.00000003 +00000-0 +10000-3 0  9992
2 02365 087.2960 111.0223 0189790 246.6132 111.4678 08.66850992361807
1 02365U 63014Q   06148.40904421 +.00000003 +00000-0 +10000-3 0  9990
2 02365 087.2955 110.9216 0189307 245.3281 112.7834 08.66851279361892
